[{"OBJECT_NAME":"STARLINK-4421","OBJECT_ID":"2022-099Z","EPOCH":"2026-03-01T07:49:41.263392","MEAN_MOTION":15.05653763,"ECCENTRICITY":0.0001197,"INCLINATION":97.6043,"RA_OF_ASC_NODE":183.0352,"ARG_OF_PERICENTER":226.8342,"MEAN_ANOMALY":133.2785,"EPHEMERIS_TYPE":0,"CLASSIFICATION_TYPE":"U","NORAD_CAT_ID":53488,"ELEMENT_SET_NO":999,"REV_AT_EPOCH":19479,"BSTAR":-3.2864e-6,"MEAN_MOTION_DOT":-1.08e-6,"MEAN_MOTION_DDOT":0},{"OBJECT_NAME":"STARLINK-4392","OBJECT_ID":"2022-099AA","EPOCH":"2026-03-01T07:12:08.525088","MEAN_MOTION":15.01256356,"ECCENTRICITY":0.0003459,"INCLINATION":97.6025,"RA_OF_ASC_NODE":181.9751,"ARG_OF_PERICENTER":172.82,"MEAN_ANOMALY":187.3074,"EPHEMERIS_TYPE":0,"CLASSIFICATION_TYPE":"U","NORAD_CAT_ID":53489,"ELEMENT_SET_NO":999,"REV_AT_EPOCH":19472,"BSTAR":1.211e-5,"MEAN_MOTION_DOT":9.7e-7,"MEAN_MOTION_DDOT":0},{"OBJECT_NAME":"STARLINK-4387","OBJECT_ID":"2022-099AB","EPOCH":"2026-03-01T06:57:50.277600","MEAN_MOTION":15.05646861,"ECCENTRICITY":5.94e-5,"INCLINATION":97.6038,"RA_OF_ASC_NODE":182.9191,"ARG_OF_PERICENTER":96.2105,"MEAN_ANOMALY":263.9189,"EPHEMERIS_TYPE":0,"CLASSIFICATION_TYPE":"U","NORAD_CAT_ID":53490,"ELEMENT_SET_NO":999,"REV_AT_EPOCH":19477,"BSTAR":-9.7586e-6,"MEAN_MOTION_DOT":-2.02e-6,"MEAN_MOTION_DDOT":0},{"OBJECT_NAME":"STARLINK-4450","OBJECT_ID":"2022-099AC","EPOCH":"2026-03-01T06:50:47.920704","MEAN_MOTION":15.01262664,"ECCENTRICITY":0.0001906,"INCLINATION":97.6048,"RA_OF_ASC_NODE":182.0005,"ARG_OF_PERICENTER":210.7894,"MEAN_ANOMALY":149.3219,"EPHEMERIS_TYPE":0,"CLASSIFICATION_TYPE":"U","NORAD_CAT_ID":53491,"ELEMENT_SET_NO":999,"REV_AT_EPOCH":19472,"BSTAR":9.3732e-5,"MEAN_MOTION_DOT":1.146e-5,"MEAN_MOTION_DDOT":0},{"OBJECT_NAME":"STARLINK-4451","OBJECT_ID":"2022-099AD","EPOCH":"2026-03-01T06:58:26.625216","MEAN_MOTION":15.01263999,"ECCENTRICITY":0.0001864,"INCLINATION":97.6049,"RA_OF_ASC_NODE":181.9962,"ARG_OF_PERICENTER":236.4459,"MEAN_ANOMALY":123.6588,"EPHEMERIS_TYPE":0,"CLASSIFICATION_TYPE":"U","NORAD_CAT_ID":53492,"ELEMENT_SET_NO":999,"REV_AT_EPOCH":19472,"BSTAR":7.5544e-5,"MEAN_MOTION_DOT":9.12e-6,"MEAN_MOTION_DDOT":0},{"OBJECT_NAME":"STARLINK-4361","OBJECT_ID":"2022-099AE","EPOCH":"2026-03-01T12:00:02.998944","MEAN_MOTION":15.81408672,"ECCENTRICITY":9.12e-5,"INCLINATION":97.6464,"RA_OF_ASC_NODE":199.4374,"ARG_OF_PERICENTER":93.1557,"MEAN_ANOMALY":244.5999,"EPHEMERIS_TYPE":0,"CLASSIFICATION_TYPE":"U","NORAD_CAT_ID":53493,"ELEMENT_SET_NO":999,"REV_AT_EPOCH":602,"BSTAR":0.0025539,"MEAN_MOTION_DOT":0.00534637,"MEAN_MOTION_DDOT":0},{"OBJECT_NAME":"STARLINK-4340","OBJECT_ID":"2022-099AF","EPOCH":"2026-03-01T07:45:41.114592","MEAN_MOTION":15.05647605,"ECCENTRICITY":6.27e-5,"INCLINATION":97.6042,"RA_OF_ASC_NODE":183.0177,"ARG_OF_PERICENTER":101.6118,"MEAN_ANOMALY":258.5179,"EPHEMERIS_TYPE":0,"CLASSIFICATION_TYPE":"U","NORAD_CAT_ID":53494,"ELEMENT_SET_NO":999,"REV_AT_EPOCH":19479,"BSTAR":2.9878e-5,"MEAN_MOTION_DOT":3.7e-6,"MEAN_MOTION_DDOT":0},{"OBJECT_NAME":"STARLINK-4429","OBJECT_ID":"2022-099AG","EPOCH":"2026-03-01T06:47:46.991328","MEAN_MOTION":15.01269063,"ECCENTRICITY":0.000117,"INCLINATION":97.6042,"RA_OF_ASC_NODE":181.9917,"ARG_OF_PERICENTER":196.0359,"MEAN_ANOMALY":164.0828,"EPHEMERIS_TYPE":0,"CLASSIFICATION_TYPE":"U","NORAD_CAT_ID":53495,"ELEMENT_SET_NO":999,"REV_AT_EPOCH":19472,"BSTAR":0.0003904,"MEAN_MOTION_DOT":4.961e-5,"MEAN_MOTION_DDOT":0},{"OBJECT_NAME":"STARLINK-4465","OBJECT_ID":"2022-099AH","EPOCH":"2026-03-01T08:58:54.452640","MEAN_MOTION":15.79671936,"ECCENTRICITY":0.0001454,"INCLINATION":97.6403,"RA_OF_ASC_NODE":206.1479,"ARG_OF_PERICENTER":348.2611,"MEAN_ANOMALY":11.8621,"EPHEMERIS_TYPE":0,"CLASSIFICATION_TYPE":"U","NORAD_CAT_ID":53496,"ELEMENT_SET_NO":999,"REV_AT_EPOCH":19619,"BSTAR":0.00017027,"MEAN_MOTION_DOT":0.00030926,"MEAN_MOTION_DDOT":0},{"OBJECT_NAME":"STARLINK-4453","OBJECT_ID":"2022-099AJ","EPOCH":"2026-03-01T08:18:26.051040","MEAN_MOTION":15.0127919,"ECCENTRICITY":0.0001757,"INCLINATION":97.6035,"RA_OF_ASC_NODE":182.0555,"ARG_OF_PERICENTER":88.1311,"MEAN_ANOMALY":272.0115,"EPHEMERIS_TYPE":0,"CLASSIFICATION_TYPE":"U","NORAD_CAT_ID":53497,"ELEMENT_SET_NO":999,"REV_AT_EPOCH":19473,"BSTAR":-0.00024739,"MEAN_MOTION_DOT":-3.236e-5,"MEAN_MOTION_DDOT":0},{"OBJECT_NAME":"STARLINK-4439","OBJECT_ID":"2022-099AK","EPOCH":"2026-03-01T07:01:49.233216","MEAN_MOTION":15.05665191,"ECCENTRICITY":5.38e-5,"INCLINATION":97.6031,"RA_OF_ASC_NODE":182.8913,"ARG_OF_PERICENTER":115.112,"MEAN_ANOMALY":245.0163,"EPHEMERIS_TYPE":0,"CLASSIFICATION_TYPE":"U","NORAD_CAT_ID":53498,"ELEMENT_SET_NO":999,"REV_AT_EPOCH":19478,"BSTAR":-5.8032e-5,"MEAN_MOTION_DOT":-8.98e-6,"MEAN_MOTION_DDOT":0},{"OBJECT_NAME":"STARLINK-4454","OBJECT_ID":"2022-099AL","EPOCH":"2026-03-01T07:21:45.556128","MEAN_MOTION":15.05649087,"ECCENTRICITY":4.8e-5,"INCLINATION":97.6033,"RA_OF_ASC_NODE":183.0092,"ARG_OF_PERICENTER":210.8444,"MEAN_ANOMALY":149.2755,"EPHEMERIS_TYPE":0,"CLASSIFICATION_TYPE":"U","NORAD_CAT_ID":53499,"ELEMENT_SET_NO":999,"REV_AT_EPOCH":19479,"BSTAR":3.5758e-5,"MEAN_MOTION_DOT":4.55e-6,"MEAN_MOTION_DDOT":0},{"OBJECT_NAME":"STARLINK-4455","OBJECT_ID":"2022-099AM","EPOCH":"2026-03-01T07:05:48.631200","MEAN_MOTION":15.05651757,"ECCENTRICITY":0.0001191,"INCLINATION":97.603,"RA_OF_ASC_NODE":183.0306,"ARG_OF_PERICENTER":91.7959,"MEAN_ANOMALY":268.3404,"EPHEMERIS_TYPE":0,"CLASSIFICATION_TYPE":"U","NORAD_CAT_ID":53500,"ELEMENT_SET_NO":999,"REV_AT_EPOCH":19479,"BSTAR":0.00013622,"MEAN_MOTION_DOT":1.905e-5,"MEAN_MOTION_DDOT":0},{"OBJECT_NAME":"STARLINK-4434","OBJECT_ID":"2022-099AN","EPOCH":"2026-03-01T08:07:46.698816","MEAN_MOTION":15.0127316,"ECCENTRICITY":0.000308,"INCLINATION":97.6022,"RA_OF_ASC_NODE":182.0517,"ARG_OF_PERICENTER":82.1153,"MEAN_ANOMALY":278.0421,"EPHEMERIS_TYPE":0,"CLASSIFICATION_TYPE":"U","NORAD_CAT_ID":53501,"ELEMENT_SET_NO":999,"REV_AT_EPOCH":19473,"BSTAR":-5.9128e-5,"MEAN_MOTION_DOT":-8.18e-6,"MEAN_MOTION_DDOT":0},{"OBJECT_NAME":"STARLINK-4435","OBJECT_ID":"2022-099AP","EPOCH":"2026-03-01T08:01:38.074944","MEAN_MOTION":15.05658851,"ECCENTRICITY":5.6e-5,"INCLINATION":97.6041,"RA_OF_ASC_NODE":182.9737,"ARG_OF_PERICENTER":261.9728,"MEAN_ANOMALY":98.1435,"EPHEMERIS_TYPE":0,"CLASSIFICATION_TYPE":"U","NORAD_CAT_ID":53502,"ELEMENT_SET_NO":999,"REV_AT_EPOCH":19479,"BSTAR":0.0002727,"MEAN_MOTION_DOT":3.877e-5,"MEAN_MOTION_DDOT":0},{"OBJECT_NAME":"STARLINK-4461","OBJECT_ID":"2022-099AQ","EPOCH":"2026-03-01T09:31:45.646176","MEAN_MOTION":15.8011659,"ECCENTRICITY":7.85e-5,"INCLINATION":97.6353,"RA_OF_ASC_NODE":206.8094,"ARG_OF_PERICENTER":66.5915,"MEAN_ANOMALY":293.5434,"EPHEMERIS_TYPE":0,"CLASSIFICATION_TYPE":"U","NORAD_CAT_ID":53503,"ELEMENT_SET_NO":999,"REV_AT_EPOCH":19624,"BSTAR":0.00043074,"MEAN_MOTION_DOT":0.00080525,"MEAN_MOTION_DDOT":0},{"OBJECT_NAME":"STARLINK-4448","OBJECT_ID":"2022-099AR","EPOCH":"2026-03-01T08:13:06.529152","MEAN_MOTION":15.01276307,"ECCENTRICITY":0.0002012,"INCLINATION":97.6028,"RA_OF_ASC_NODE":182.0518,"ARG_OF_PERICENTER":74.6064,"MEAN_ANOMALY":285.5382,"EPHEMERIS_TYPE":0,"CLASSIFICATION_TYPE":"U","NORAD_CAT_ID":53504,"ELEMENT_SET_NO":999,"REV_AT_EPOCH":19473,"BSTAR":7.6238e-5,"MEAN_MOTION_DOT":9.21e-6,"MEAN_MOTION_DDOT":0}]
