STARLINK-4421           
1 53488U 22099Z   26060.32617203 -.00000108  00000+0 -32864-5 0  9996
2 53488  97.6043 183.0352 0001197 226.8342 133.2785 15.05653763194796
STARLINK-4392           
1 53489U 22099AA  26060.30009867  .00000097  00000+0  12110-4 0  9992
2 53489  97.6025 181.9751 0003459 172.8200 187.3074 15.01256356194720
STARLINK-4387           
1 53490U 22099AB  26060.29016525 -.00000202  00000+0 -97586-5 0  9992
2 53490  97.6038 182.9191 0000594  96.2105 263.9189 15.05646861194776
STARLINK-4450           
1 53491U 22099AC  26060.28527686  .00001146  00000+0  93732-4 0  9991
2 53491  97.6048 182.0005 0001906 210.7894 149.3219 15.01262664194726
STARLINK-4451           
1 53492U 22099AD  26060.29058594  .00000912  00000+0  75544-4 0  9991
2 53492  97.6049 181.9962 0001864 236.4459 123.6588 15.01263999194729
STARLINK-4361           
1 53493U 22099AE  26060.50003471  .00534637  00000+0  25539-2 0  9993
2 53493  97.6464 199.4374 0000912  93.1557 244.5999 15.81408672  6023
STARLINK-4340           
1 53494U 22099AF  26060.32339253  .00000370  00000+0  29878-4 0  9998
2 53494  97.6042 183.0177 0000627 101.6118 258.5179 15.05647605194791
STARLINK-4429           
1 53495U 22099AG  26060.28318277  .00004961  00000+0  39040-3 0  9998
2 53495  97.6042 181.9917 0001170 196.0359 164.0828 15.01269063194729
STARLINK-4465           
1 53496U 22099AH  26060.37424135  .00030926  00000+0  17027-3 0  9991
2 53496  97.6403 206.1479 0001454 348.2611  11.8621 15.79671936196195
STARLINK-4453           
1 53497U 22099AJ  26060.34613485 -.00003236  00000+0 -24739-3 0  9991
2 53497  97.6035 182.0555 0001757  88.1311 272.0115 15.01279190194735
STARLINK-4439           
1 53498U 22099AK  26060.29293094 -.00000898  00000+0 -58032-4 0  9991
2 53498  97.6031 182.8913 0000538 115.1120 245.0163 15.05665191194785
STARLINK-4454           
1 53499U 22099AL  26060.30677727  .00000455  00000+0  35758-4 0  9990
2 53499  97.6033 183.0092 0000480 210.8444 149.2755 15.05649087194796
STARLINK-4455           
1 53500U 22099AM  26060.29570175  .00001905  00000+0  13622-3 0  9996
2 53500  97.6030 183.0306 0001191  91.7959 268.3404 15.05651757194792
STARLINK-4434           
1 53501U 22099AN  26060.33873494 -.00000818  00000+0 -59128-4 0  9998
2 53501  97.6022 182.0517 0003080  82.1153 278.0421 15.01273160194731
STARLINK-4435           
1 53502U 22099AP  26060.33446846  .00003877  00000+0  27270-3 0  9994
2 53502  97.6041 182.9737 0000560 261.9728  98.1435 15.05658851194791
STARLINK-4461           
1 53503U 22099AQ  26060.39705609  .00080525  00000+0  43074-3 0  9991
2 53503  97.6353 206.8094 0000785  66.5915 293.5434 15.80116590196240
STARLINK-4448           
1 53504U 22099AR  26060.34243668  .00000921  00000+0  76238-4 0  9990
2 53504  97.6028 182.0518 0002012  74.6064 285.5382 15.01276307194737
